NORAD_CAT_ID,OBJECT_NAME,OBJECT_TYPE,EPOCH,MEAN_MOTION,ECCENTRICITY,INCLINATION,RA_OF_ASC_NODE,ARG_OF_PERICENTER,MEAN_ANOMALY,BSTAR,MEAN_MOTION_DOT,MEAN_MOTION_DDOT,TLE_LINE0,TLE_LINE1,TLE_LINE2,SEMIMAJOR_AXIS,PERIOD,APOGEE,PERIGEE,DECAYED
51892.0,STARLINK-3587,PAYLOAD,2023-02-10 04:29:50,15.08875426,9.91e-05,53.216,2.7273,86.051,274.0595,0.0015641,0.00024716,0.0,0 STARLINK-3587,1 51892U 22022AS  23041.18739041  .00024716  00000-0  15641-2 0  9995,2 51892  53.2160   2.7273 0000991  86.0510 274.0595 15.08875426 53639,6917.772,95.435,540.323,538.952,0.0
51892.0,STARLINK-3587,PAYLOAD,2023-02-10 23:34:27,15.08857373,0.0001336,53.2158,359.1598,113.7099,246.4033,0.0011893,0.00018699,0.0,0 STARLINK-3587,1 51892U 22022AS  23041.98226802  .00018699  00000-0  11893-2 0  9997,2 51892  53.2158 359.1598 0001336 113.7099 246.4033 15.08857373 53753,6917.827,95.436,540.617,538.768,0.0
51892.0,STARLINK-3587,PAYLOAD,2023-02-11 04:20:37,15.08867519,0.0001199,53.2158,358.2698,109.4247,250.6875,0.0010379,0.00016281,0.0,0 STARLINK-3587,1 51892U 22022AS  23042.18098392  .00016281  00000-0  10379-2 0  9994,2 51892  53.2158 358.2698 0001199 109.4247 250.6875 15.08867519 53785,6917.796,95.436,540.491,538.832,0.0
51892.0,STARLINK-3587,PAYLOAD,2023-02-12 05:46:47,15.08844058,0.0001153,53.2148,353.5084,119.0527,241.0581,0.00082027,0.00012792,0.0,0 STARLINK-3587,1 51892U 22022AS  23043.24082679  .00012792  00000-0  82027-3 0  9996,2 51892  53.2148 353.5084 0001153 119.0527 241.0581 15.08844058 53948,6917.868,95.437,540.531,538.935,0.0
51892.0,STARLINK-3587,PAYLOAD,2023-02-12 13:43:43,15.08831022,4.38e-05,53.2136,352.0254,64.4913,295.6124,2.4723e-05,1.06e-06,0.0,0 STARLINK-3587,1 51892U 22022AS  23043.57203526  .00000106  00000-0  24723-4 0  9994,2 51892  53.2136 352.0254 0000438  64.4913 295.6124 15.08831022 53995,6917.908,95.438,540.076,539.47,0.0
51892.0,STARLINK-3587,PAYLOAD,2023-02-12 20:05:17,15.08810606,0.0003462,53.2153,350.8356,77.4934,282.6445,0.00057316,8.838e-05,0.0,0 STARLINK-3587,1 51892U 22022AS  23043.83701142  .00008838  00000-0  57316-3 0  9993,2 51892  53.2153 350.8356 0003462  77.4934 282.6445 15.08810606 54033,6917.97,95.439,542.23,537.44,0.0
51892.0,STARLINK-3587,PAYLOAD,2023-02-13 02:26:51,15.08772055,0.0001127,53.2156,349.6443,80.9959,279.1161,-0.00032711,-5.48e-05,0.0,0 STARLINK-3587,1 51892U 22022AS  23044.10198282 -.00005480  00000-0 -32711-3 0  9993,2 51892  53.2156 349.6443 0001127  80.9959 279.1161 15.08772055 54076,6918.088,95.442,540.733,539.173,0.0
51892.0,STARLINK-3587,PAYLOAD,2023-02-13 13:34:32,15.08831711,6.42e-05,53.2164,347.5613,92.1956,267.911,0.0013737,0.00021637,0.0,0 STARLINK-3587,1 51892U 22022AS  23044.56565673  .00021637  00000-0  13737-2 0  9991,2 51892  53.2164 347.5613 0000642  92.1956 267.9110 15.08831711 54146,6917.906,95.438,540.215,539.327,0.0
51892.0,STARLINK-3587,PAYLOAD,2023-02-14 02:17:37,15.08875868,9.86e-05,53.2152,345.1812,91.7213,268.3892,0.0017347,0.00027455,0.0,0 STARLINK-3587,1 51892U 22022AS  23045.09556923  .00027455  00000-0  17347-2 0  9993,2 51892  53.2152 345.1812 0000986  91.7213 268.3892 15.08875868 54222,6917.771,95.435,540.318,538.954,0.0
51892.0,STARLINK-3587,PAYLOAD,2023-02-14 13:25:18,15.08888948,7.19e-05,53.2151,343.1012,341.7368,18.3598,0.0012038,0.00018948,0.0,0 STARLINK-3587,1 51892U 22022AS  23045.55923690  .00018948  00000-0  12038-2 0  9992,2 51892  53.2151 343.1012 0000719 341.7368  18.3598 15.08888948 54290,6917.731,95.434,540.093,539.098,0.0
51892.0,STARLINK-3587,PAYLOAD,2023-02-15 02:08:23,15.08854882,0.0001671,53.2146,340.7225,70.5328,289.5845,0.00042817,6.536e-05,0.0,0 STARLINK-3587,1 51892U 22022AS  23046.08916357  .00006536  00000-0  42817-3 0  9992,2 51892  53.2146 340.7225 0001671  70.5328 289.5845 15.08854882 54370,6917.835,95.437,540.856,538.544,0.0
51892.0,STARLINK-3587,PAYLOAD,2023-02-15 22:48:24,15.08865469,0.0001663,53.2138,336.8537,66.3986,293.7181,0.0013422,0.00021153,0.0,0 STARLINK-3587,1 51892U 22022AS  23046.95028114  .00021153  00000-0  13422-2 0  9994,2 51892  53.2138 336.8537 0001663  66.3986 293.7181 15.08865469 54505,6917.803,95.436,540.818,538.517,0.0
51892.0,STARLINK-3587,PAYLOAD,2023-02-16 01:59:10,15.08889041,0.0001473,53.2151,336.2616,75.6032,284.5124,0.0019118,0.0003031,0.0,0 STARLINK-3587,1 51892U 22022AS  23047.08275712  .00030310  00000-0  19118-2 0  9990,2 51892  53.2151 336.2616 0001473  75.6032 284.5124 15.08889041 54525,6917.73,95.434,540.614,538.577,0.0
51892.0,STARLINK-3587,PAYLOAD,2023-02-16 17:53:01,15.08846452,0.0001512,53.2151,333.2878,101.7455,258.3707,0.00084687,0.00013218,0.0,0 STARLINK-3587,1 51892U 22022AS  23047.74515906  .00013218  00000-0  84687-3 0  9997,2 51892  53.2151 333.2878 0001512 101.7455 258.3707 15.08846452 54622,6917.861,95.437,540.772,538.68,0.0
51892.0,STARLINK-3587,PAYLOAD,2023-02-16 22:39:11,15.08839625,0.0001162,53.2148,332.3941,101.8261,258.2861,6.5832e-05,7.6e-06,0.0,0 STARLINK-3587,1 51892U 22022AS  23047.94387955  .00000760  00000-0  65832-4 0  9990,2 51892  53.2148 332.3941 0001162 101.8261 258.2861 15.08839625 54653,6917.882,95.438,540.55,538.943,0.0
51892.0,STARLINK-3587,PAYLOAD,2023-02-17 00:14:34,15.08835543,0.0001362,53.2156,332.0959,115.9974,244.1158,0.00049794,7.645e-05,0.0,0 STARLINK-3587,1 51892U 22022AS  23048.01012004  .00007645  00000-0  49794-3 0  9996,2 51892  53.2156 332.0959 0001362 115.9974 244.1158 15.08835543 54666,6917.894,95.438,540.701,538.817,0.0
51892.0,STARLINK-3587,PAYLOAD,2023-02-17 17:43:50,15.08814811,0.0001032,53.2153,328.827,77.2318,282.879,0.00053879,8.292e-05,0.0,0 STARLINK-3587,1 51892U 22022AS  23048.73877413  .00008292  00000-0  53879-3 0  9996,2 51892  53.2153 328.8270 0001032  77.2318 282.8790 15.08814811 54776,6917.957,95.439,540.536,539.108,0.0
51892.0,STARLINK-3587,PAYLOAD,2023-02-18 04:51:32,15.08835575,0.000104,53.2153,326.7439,106.0442,254.0665,0.0008091,0.00012611,0.0,0 STARLINK-3587,1 51892U 22022AS  23049.20245435  .00012611  00000-0  80910-3 0  9998,2 51892  53.2153 326.7439 0001040 106.0442 254.0665 15.08835575 54848,6917.894,95.438,540.478,539.039,0.0
51892.0,STARLINK-3587,PAYLOAD,2023-02-18 23:56:09,15.08855954,9.82e-05,53.215,323.1757,114.4384,245.6711,0.00067898,0.00010539,0.0,0 STARLINK-3587,1 51892U 22022AS  23049.99732956  .00010539  00000-0  67898-3 0  9990,2 51892  53.2150 323.1757 0000982 114.4384 245.6711 15.08855954 54965,6917.832,95.437,540.376,539.017,0.0
51892.0,STARLINK-3587,PAYLOAD,2023-02-19 23:46:56,15.08851084,0.0001049,53.2149,318.7169,91.8566,268.2546,0.00022366,3.275e-05,0.0,0 STARLINK-3587,1 51892U 22022AS  23050.99092631  .00003275  00000-0  22366-3 0  9991,2 51892  53.2149 318.7169 0001049  91.8566 268.2546 15.08851084 55110,6917.847,95.437,540.437,538.986,0.0
51892.0,STARLINK-3587,PAYLOAD,2023-02-20 10:54:38,15.08846882,0.0001139,53.2147,316.6353,78.4604,281.6516,9.9448e-05,1.296e-05,0.0,0 STARLINK-3587,1 51892U 22022AS  23051.45460670  .00001296  00000-0  99448-4 0  9992,2 51892  53.2147 316.6353 0001139  78.4604 281.6516 15.08846882 55187,6917.859,95.437,540.512,538.936,0.0
51892.0,STARLINK-3587,PAYLOAD,2023-02-20 22:02:19,15.08843205,0.0001058,53.2147,314.5525,77.6542,282.4568,-4.2015e-05,-9.56e-06,0.0,0 STARLINK-3587,1 51892U 22022AS  23051.91828682 -.00000956  00000-0 -42015-4 0  9996,2 51892  53.2147 314.5525 0001058  77.6542 282.4568 15.08843205 55257,6917.871,95.437,540.468,539.004,0.0
51892.0,STARLINK-3587,PAYLOAD,2023-02-21 04:23:51,15.08859442,0.0001062,53.2151,313.3621,88.8822,271.2292,0.00018396,2.643e-05,0.0,0 STARLINK-3587,1 51892U 22022AS  23052.18323734  .00002643  00000-0  18396-3 0  9991,2 51892  53.2151 313.3621 0001062  88.8822 271.2292 15.08859442 55290,6917.821,95.436,540.421,538.951,0.0
51892.0,STARLINK-3587,PAYLOAD,2023-02-21 10:45:25,15.08838778,0.000106,53.2144,312.1738,78.2921,281.819,-4.4461e-05,-9.95e-06,0.0,0 STARLINK-3587,1 51892U 22022AS  23052.44820631 -.00000995  00000-0 -44461-4 0  9991,2 51892  53.2144 312.1738 0001060  78.2921 281.8190 15.08838778 55337,6917.884,95.438,540.482,539.016,0.0
51892.0,STARLINK-3587,PAYLOAD,2023-02-21 21:53:06,15.08851928,0.0001117,53.215,310.093,71.9943,288.1171,0.00016262,2.302e-05,0.0,0 STARLINK-3587,1 51892U 22022AS  23052.91188067  .00002302  00000-0  16262-3 0  9992,2 51892  53.2150 310.0930 0001117  71.9943 288.1171 15.08851928 55401,6917.844,95.437,540.482,538.936,0.0
51892.0,STARLINK-3587,PAYLOAD,2023-02-22 02:39:15,15.08866118,0.0001157,53.2141,309.1996,84.3964,275.716,0.00049341,7.579e-05,0.0,0 STARLINK-3587,1 51892U 22022AS  23053.11059428  .00007579  00000-0  49341-3 0  9998,2 51892  53.2141 309.1996 0001157  84.3964 275.7160 15.08866118 55437,6917.801,95.436,540.466,538.865,0.0
51892.0,STARLINK-3587,PAYLOAD,2023-02-22 18:33:07,15.0882971,0.0001,53.214,306.2263,97.396,262.7146,-0.00011026,-2.042e-05,0.0,0 STARLINK-3587,1 51892U 22022AS  23053.77300697 -.00002042  00000-0 -11026-3 0  9998,2 51892  53.2140 306.2263 0001000  97.3960 262.7146 15.08829710 55536,6917.912,95.438,540.469,539.085,0.0
51892.0,STARLINK-3587,PAYLOAD,2023-02-22 21:43:54,15.08830681,9.9e-05,53.214,305.6313,108.0657,252.0443,0.00023742,3.492e-05,0.0,0 STARLINK-3587,1 51892U 22022AS  23053.90548887  .00003492  00000-0  23742-3 0  9994,2 51892  53.2140 305.6313 0000990 108.0657 252.0443 15.08830681 55558,6917.909,95.438,540.459,539.089,0.0
51892.0,STARLINK-3587,PAYLOAD,2023-02-23 02:30:04,15.08829299,7e-05,53.2136,304.7406,65.1462,294.9602,0.0012657,0.00019907,0.0,0 STARLINK-3587,1 51892U 22022AS  23054.10421325  .00019907  00000-0  12657-2 0  9994,2 51892  53.2136 304.7406 0000700  65.1462 294.9602 15.08829299 55580,6917.913,95.438,540.262,539.294,0.0
51892.0,STARLINK-3587,PAYLOAD,2023-02-23 23:10:04,15.08871541,6.78e-05,53.2136,300.874,69.3172,290.7893,0.0015606,0.00024658,0.0,0 STARLINK-3587,1 51892U 22022AS  23054.96532654  .00024658  00000-0  15606-2 0  9992,2 51892  53.2136 300.8740 0000678  69.3172 290.7893 15.08871541 55714,6917.784,95.436,540.118,539.18,0.0
